STARLINK-1007           
1 44713U 19074A   24124.84539095  .00003422  00000+0  24847-3 0  9994
2 44713  53.0549 336.1096 0001500  87.9454 272.1707 15.06407192247035
STARLINK-1008           
1 44714U 19074B   24124.89055633  .00007379  00000+0  51359-3 0  9994
2 44714  53.0544 335.9076 0001494  94.3393 265.7767 15.06411142247047
STARLINK-1009           
1 44715U 19074C   24124.87949457  .00004926  00000+0  34924-3 0  9993
2 44715  53.0545 335.9562 0001257  83.8635 276.2497 15.06414675247207
STARLINK-1010           
1 44716U 19074D   24124.89793192  .00009019  00000+0  62343-3 0  9993
2 44716  53.0539 335.8749 0001341  93.3388 266.7755 15.06410445247024
STARLINK-1011           
1 44717U 19074E   24124.89608839  .00006772  00000+0  47287-3 0  9990
2 44717  53.0543 355.8843 0001255  97.7906 262.3225 15.06419169246761
STARLINK-1012           
1 44718U 19074F   24124.86844193  .00005479  00000+0  38629-3 0  9996
2 44718  53.0546 336.0057 0001313  98.2014 261.9123 15.06411393247038
STARLINK-1013           
1 44719U 19074G   24124.87580815  .00001509  00000+0  12011-3 0  9993
2 44719  53.0549 335.9724 0001213  90.5854 269.5274 15.06424312247202
STARLINK-1014           
1 44720U 19074H   24124.88949360  .00007874  00000+0  51164-3 0  9993
2 44720  53.0549 335.1711 0001867 159.0178 201.0889 15.08884661247052
STARLINK-1015           
1 44721U 19074J   24124.88318573  .00001524  00000+0  12112-3 0  9996
2 44721  53.0535 335.9407 0001191  95.1988 264.9137 15.06411643247033
STARLINK-1017           
1 44723U 19074L   24124.90162313  .00008190  00000+0  56790-3 0  9996
2 44723  53.0531 335.8570 0001334  90.8915 269.2227 15.06409355247048
STARLINK-1019           
1 44724U 19074M   24124.86475943  .00003108  00000+0  22735-3 0  9994
2 44724  53.0554 336.0218 0001426  90.7146 269.4006 15.06417496247034
STARLINK-1020           
1 44725U 19074N   24124.93662327  .00001413  00000+0  11369-3 0  9995
2 44725  53.0558 355.7004 0001242  93.6023 266.5108 15.06417027246762
STARLINK-1021           
1 44726U 19074P   24124.79472599  .00008242  00000+0  57139-3 0  9992
2 44726  53.0548 336.3362 0001474  92.7890 267.3267 15.06411161247021
STARLINK-1027           
1 44732U 19074V   24124.92557149  .00000672  00000+0  64010-4 0  9995
2 44732  53.0553 355.7590 0001353  87.4872 272.6272 15.06414661246762
STARLINK-1028           
1 44733U 19074W   24124.79103958  .00004511  00000+0  32142-3 0  9992
2 44733  53.0550 336.3557 0001230 105.9220 254.1904 15.06416114247027
STARLINK-1029           
1 44734U 19074X   24124.67308803  .00012738  00000+0  87209-3 0  9990
2 44734  53.0535 256.8818 0001337  89.3158 270.7984 15.06417643248100
STARLINK-1030           
1 44735U 19074Y   24124.93294226  .00010148  00000+0  69880-3 0  9991
2 44735  53.0550 355.7175 0001378  86.8398 273.2749 15.06421030246768
STARLINK-1031           
1 44736U 19074Z   24124.94769124  .00009698  00000+0  66877-3 0  9998
2 44736  53.0547 355.6508 0001252  93.2160 266.8972 15.06415402246777
STARLINK-1032           
1 44737U 19074AA  24124.89240030  .00008789  00000+0  60786-3 0  9996
2 44737  53.0535 355.8998 0001412  88.8537 271.2614 15.06420150246764
STARLINK-1035           
1 44740U 19074AD  24124.88871806  .00008910  00000+0  61613-3 0  9996
2 44740  53.0536 355.9249 0001240  94.7354 265.3776 15.06411343246768
STARLINK-1036           
1 44741U 19074AE  24124.89977519  .00011010  00000+0  75663-3 0  9991
2 44741  53.0534 355.8660 0001373  91.4840 268.6306 15.06412347246764
STARLINK-1038           
1 44743U 19074AG  24124.94954419  .00006213  00000+0  43568-3 0  9991
2 44743  53.0523  15.6420 0001417  88.0336 272.0815 15.06395204246586
STARLINK-1039           
1 44744U 19074AH  24124.96058422  .00015095  00000+0  10293-2 0  9999
2 44744  53.0544  15.5956 0001626  83.9269 276.1905 15.06428825246495
STARLINK-1041           
1 44746U 19074AK  24124.91668981  .01325397  00000+0  72690-1 0  9991
2 44746  53.0541  15.7632 0001320  81.6580 134.3758 15.10769877246669
STARLINK-1042           
1 44747U 19074AL  24124.91383190  .00028524  00000+0  15645-2 0  9997
2 44747  53.0557  13.0773 0002263 102.2568 257.8677 15.13971009246539
STARLINK-1043           
1 44748U 19074AM  24124.93847009  .00013082  00000+0  89492-3 0  9999
2 44748  53.0560  15.6939 0001416 102.3146 257.8001 15.06422950246492
STARLINK-1046           
1 44751U 19074AQ  24124.95321556  .00014717  00000+0  10044-2 0  9991
2 44751  53.0536  15.6265 0001285 100.2257 259.8877 15.06416194246491
STARLINK-1047           
1 44752U 19074AR  24124.90714757  .00011545  00000+0  79226-3 0  9990
2 44752  53.0541 355.8319 0001513 101.4590 258.6568 15.06420477246767
STARLINK-1048           
1 44753U 19074AS  24124.84632531  .00002292  00000+0  17264-3 0  9996
2 44753  53.0552 336.1056 0001463  88.7873 271.3284 15.06413082247037
STARLINK-1052           
1 44757U 19074AW  24124.92564288  .00015139  00000+0  66778-3 0  9990
2 44757  53.0471 343.3155 0004756  99.6109 260.5424 15.21981342246943
STARLINK-1053           
1 44758U 19074AX  24124.93479439  .00014871  00000+0  10143-2 0  9991
2 44758  53.0555  15.7971 0001340  97.0634 263.0508 15.06430579246499
STARLINK-1054           
1 44759U 19074AY  24124.85001148  .00016317  00000+0  11112-2 0  9995
2 44759  53.0555  16.0876 0001359  91.2465 268.8680 15.06419632244125
STARLINK-1055           
1 44760U 19074AZ  24124.85462367  .00016417  00000+0  58120-3 0  9993
2 44760  53.0146 333.0394 0005937 142.3099 217.8317 15.29273696247090
STARLINK-1056           
1 44761U 19074BA  24124.84632155  .00008836  00000+0  61106-3 0  9991
2 44761  53.0545  16.1058 0001302  88.0669 272.0469 15.06416928246486
STARLINK-1057           
1 44762U 19074BB  24124.91451469  .00010609  00000+0  72970-3 0  9999
2 44762  53.0550 355.8004 0001490  95.6782 264.4377 15.06417852246766
STARLINK-1058           
1 44763U 19074BC  24124.96799774  .00016888  00000+0  11487-2 0  9999
2 44763  53.0547  15.9053 0001284 102.9572 257.1561 15.06440700246493
STARLINK-1059           
1 44764U 19074BD  24124.91668981  .00140377  00000+0  39641-2 0  9993
2 44764  53.0790 293.4279 0001909  85.4577 150.5882 15.35371229  5712
STARLINK-1060           
1 44765U 19074BE  24124.92925796  .00012436  00000+0  85188-3 0  9997
2 44765  53.0544 355.7340 0001272  81.0147 279.0985 15.06418653246763
STARLINK-1061           
1 44766U 19074BF  24124.92741370  .00007870  00000+0  54639-3 0  9995
2 44766  53.0558  15.7404 0001306  98.5863 261.5274 15.06416406246490
STARLINK-1062           
1 44767U 19074BG  24124.93675594 -.00002420  00000+0 -15045-3 0  9997
2 44767  53.0567  15.8791 0001660  93.8384 266.2794 15.04751406246499
STARLINK-1063           
1 44768U 19074BH  24124.94216005  .00013456  00000+0  91989-3 0  9997
2 44768  53.0552  15.6775 0001526  96.0755 264.0408 15.06424754246507
STARLINK-1067           
1 44771U 19074BL  24124.93110268  .00002178  00000+0  16506-3 0  9995
2 44771  53.0557  15.7258 0001372  92.3461 267.7685 15.06402664246496
STARLINK-1068           
1 44772U 19074BM  24124.92188451  .00012033  00000+0  82488-3 0  9997
2 44772  53.0543 355.7679 0001184  96.3237 263.7887 15.06421425246768
STARLINK-1073           
1 44914U 20001A   24124.73945128  .00002873  00000+0  21171-3 0  9991
2 44914  53.0538 136.5807 0001303  89.9963 270.1175 15.06396539238114
STARLINK-1084           
1 44915U 20001B   24124.76892535  .00003626  00000+0  26217-3 0  9991
2 44915  53.0527 136.4511 0001341  91.4077 268.7065 15.06406266238121
STARLINK-1098           
1 44917U 20001D   24124.77260407  .00001006  00000+0  86392-4 0  9992
2 44917  53.0535 136.4339 0001242  87.1344 272.9787 15.06403075238122
STARLINK-1099           
1 44918U 20001E   24124.86333780  .00104180  00000+0  10872-2 0  9993
2 44918  53.0485  77.4163 0004402  48.7955 311.3438 15.63710694239705
STARLINK-1102           
1 44920U 20001G   24124.30395094  .00017500  00000+0  57391-3 0  9998
2 44920  53.0514  85.7615 0002081 122.2689 237.8512 15.31724139238807
STARLINK-1103           
1 44921U 20001H   24124.74953844 -.00000162  00000+0  80026-5 0  9990
2 44921  53.0528 136.4982 0001300  90.6369 269.4769 15.06399215238091
STARLINK-1104           
1 44922U 20001J   24124.72100174 -.00000683  00000+0 -26955-4 0  9998
2 44922  53.0538 136.6644 0001548  87.0897 273.0269 15.06401395238112
STARLINK-1106           
1 44923U 20001K   24124.65811685  .00015271  00000+0  58772-3 0  9995
2 44923  53.0191  98.6502 0005580  61.7841 298.3719 15.26575224238649
STARLINK-1111           
1 44924U 20001L   24124.70494220 -.00013900  00000+0 -11012-3 0  9999
2 44924  53.0519 122.9699 0001736  93.7622 266.3593 15.69690282238300
STARLINK-1112           
1 44925U 20001M   24124.75048902  .00000024  00000+0  20488-4 0  9996
2 44925  53.0543 136.5328 0001523  89.7370 270.3794 15.06401103238117
STARLINK-1113           
1 44926U 20001N   24124.91668981  .00179347  00000+0  28151-2 0  9998
2 44926  53.0545 123.6016 0004929  57.1110 288.9840 15.52544100  5817
STARLINK-1114           
1 44927U 20001P   24124.76154953  .00002475  00000+0  18493-3 0  9997
2 44927  53.0531 136.4832 0001512  85.6237 274.4925 15.06406819238121
STARLINK-1119           
1 44928U 20001Q   24124.91668981  .00453230  94418-4  10988-2 0  9996
2 44928  53.0388  61.5695 0005969  97.9740  40.6682 15.95758256  6086
STARLINK-1123           
1 44930U 20001S   24124.44456793  .00003975  00000+0  28551-3 0  9995
2 44930  53.0527 137.9064 0001364  81.8918 278.2226 15.06408569238076
STARLINK-1128           
1 44931U 20001T   24124.91668981  .00177954  00000+0  38390-2 0  9992
2 44931  53.0427  91.4549 0010069  68.3272 245.0033 15.43375163  5910
STARLINK-1130 (DARKSAT) 
1 44932U 20001U   24124.76524784  .00001856  00000+0  14344-3 0  9999
2 44932  53.0533 136.4680 0001348  91.0838 269.0306 15.06399561239359
STARLINK-1144           
